0 CZ-4 DEB
1 26193U 99057CF  13280.99059714  .00002640  00000-0  40474-3 0  7508
2 26193 098.6163 275.4943 0016884 115.1938 304.9742 14.74493290726079
0 CZ-4 DEB
1 26193U 99057CF  13282.29050532  .00003685  00000-0  56129-3 0  7517
2 26193 098.6166 276.8762 0016940 111.4452 004.7777 14.74508275726263
0 CZ-4 DEB
1 26193U 99057CF  13283.30989483  .00003761  00000-0  57261-3 0  7520
2 26193 098.6165 277.9600 0016943 108.4875 015.6791 14.74512129726410
0 CZ-4 DEB
1 26193U 99057CF  13285.73943437  .00003253  00000-0  49629-3 0  7545
2 26193 098.6162 280.5430 0016947 101.2082 311.9410 14.74526171726774
0 CZ-4 DEB
1 26193U 99057CF  13286.96083588  .00003824  00000-0  58185-3 0  7555
2 26193 098.6157 281.8420 0016949 097.8758 315.0017 14.74530995726950
0 CZ-4 DEB
1 26193U 99057CF  13288.19685014  .00005521  00000-0  83576-3 0  7563
2 26193 098.6155 283.1560 0016954 094.3725 035.7804 14.74544338727137
0 CZ-4 DEB
1 26193U 99057CF  13289.28175308  .00004948  00000-0  74990-3 0  7577
2 26193 098.6155 284.3093 0016967 091.0043 034.8004 14.74551645727290
0 CZ-4 DEB
1 26193U 99057CF  13290.69430247  .00004646  00000-0  70443-3 0  7585
2 26193 098.6155 285.8110 0016929 086.9047 332.8349 14.74563578727506
0 CZ-4 DEB
1 26193U 99057CF  13291.79229517  .00004574  00000-0  69354-3 0  7593
2 26193 098.6157 286.9782 0016937 083.7696 041.1435 14.74569360727667
0 CZ-4 DEB
1 26193U 99057CF  13293.49620837  .00004286  00000-0  65021-3 0  7601
2 26193 098.6162 288.7895 0016905 078.8531 085.8676 14.74583854727910
0 CZ-4 DEB
1 26193U 99057CF  13294.69780119  .00005046  00000-0  76379-3 0  7618
2 26193 098.6165 290.0670 0016883 075.3208 344.2923 14.74591271728086
